[{"OBJECT_NAME":"STARLINK-4523","OBJECT_ID":"2022-097B","EPOCH":"2026-03-09T10:49:35.599008","MEAN_MOTION":15.08836396,"ECCENTRICITY":0.00012859,"INCLINATION":53.2171,"RA_OF_ASC_NODE":125.1926,"ARG_OF_PERICENTER":92.2224,"MEAN_ANOMALY":267.8915,"EPHEMERIS_TYPE":0,"CLASSIFICATION_TYPE":"U","NORAD_CAT_ID":53389,"ELEMENT_SET_NO":999,"REV_AT_EPOCH":19863,"BSTAR":9.764219e-6,"MEAN_MOTION_DOT":-1.32e-6,"MEAN_MOTION_DDOT":0},{"OBJECT_NAME":"SL-8 DEB","OBJECT_ID":"1986-052E","EPOCH":"2026-03-08T09:24:38.203776","MEAN_MOTION":15.11223117,"ECCENTRICITY":0.00100672,"INCLINATION":74.0059,"RA_OF_ASC_NODE":66.8929,"ARG_OF_PERICENTER":314.4934,"MEAN_ANOMALY":45.5435,"EPHEMERIS_TYPE":0,"CLASSIFICATION_TYPE":"U","NORAD_CAT_ID":16867,"ELEMENT_SET_NO":999,"REV_AT_EPOCH":11371,"BSTAR":0.0018795551,"MEAN_MOTION_DOT":0.0003173,"MEAN_MOTION_DDOT":0}]
